STARLINK-11371 [DTC]    
1 62879U 25024A   25122.83369708  .00003224  00000+0  28629-4 0  9992
2 62879  43.0009 255.5003 0001924 258.6927 101.3725 15.70827673 14577
STARLINK-11352 [DTC]    
1 62880U 25024B   25122.66936817 -.00000484  00000+0 -28013-6 0  9992
2 62880  43.0000 255.9658 0001146 250.3246 109.7498 15.70843127 14558
STARLINK-11382 [DTC]    
1 62881U 25024C   25122.69060924 -.00000180  00000+0  20927-5 0  9990
2 62881  42.9984 256.1351 0001248 250.5410 109.5323 15.70834897 14558
STARLINK-11432 [DTC]    
1 62882U 25024D   25122.38333086 -.00006143  00000+0 -44389-4 0  9992
2 62882  42.9992 258.1390 0001220 288.1720  71.9015 15.70853084 14508
STARLINK-11419 [DTC]    
1 62883U 25024E   25122.43095194  .00005547  00000+0  46723-4 0  9993
2 62883  43.0018 257.6257 0004526 256.6369 103.3994 15.70824987 14514
STARLINK-11437 [DTC]    
1 62884U 25024F   25122.44158900  .00000472  00000+0  71736-5 0  9995
2 62884  43.0009 257.7111 0001430 267.0784  92.9920 15.70830115 14515
STARLINK-11442 [DTC]    
1 62885U 25024G   25122.40442360  .00000092  00000+0  42154-5 0  9998
2 62885  43.0001 257.4120 0002079 274.9591  85.1039 15.70830723 14518
STARLINK-11365 [DTC]    
1 62886U 25024H   25122.72764362  .00001192  00000+0  12783-4 0  9999
2 62886  42.9991 255.5380 0000740 230.0473 130.0329 15.70830674 14569
STARLINK-11436 [DTC]    
1 62887U 25024J   25122.67999893  .00001394  00000+0  14370-4 0  9991
2 62887  42.9988 256.0512 0001862 272.9751  87.0903 15.70823546 14557
STARLINK-11438 [DTC]    
1 62888U 25024K   25122.41064724 -.00005095  00000+0 -36222-4 0  9994
2 62888  43.0023 257.4610 0002868 263.4810  96.5731 15.70833918 14516
STARLINK-11391 [DTC]    
1 62889U 25024L   25122.67466305  .00003739  00000+0  32604-4 0  9995
2 62889  43.0002 256.0025 0000618 223.2181 136.8638 15.70848000 14551
STARLINK-11431 [DTC]    
1 62890U 25024M   25122.84432500 -.00000288  00000+0  12422-5 0  9990
2 62890  43.0002 255.5816 0000871 284.9445  75.1327 15.70835554 14575
STARLINK-11435 [DTC]    
1 62891U 25024N   25122.83900521  .00001552  00000+0  15593-4 0  9998
2 62891  43.0000 255.5374 0002040 252.3452 107.7192 15.70836085 14572
STARLINK-32878          
1 62892U 25024P   25122.83732569 -.00000181  00000+0  29567-5 0  9999
2 62892  43.0027 281.0171 0001267 240.7242 119.3483 15.27618030 14728
STARLINK-32892          
1 62893U 25024Q   25122.84117928  .00001773  00000+0  73927-4 0  9992
2 62893  43.0006 281.0480 0001127 290.3399  69.7332 15.27589753 14728
STARLINK-32909          
1 62894U 25024R   25122.71684426  .00005803  00000+0  22027-3 0  9993
2 62894  43.0033 281.8396 0000856 269.2920  90.7834 15.27571561 14703
STARLINK-32901          
1 62895U 25024S   25122.49240454  .00006164  00000+0  23357-3 0  9996
2 62895  42.9986 282.7223 0000616 243.9438 116.1350 15.27546989 14673
STARLINK-32890          
1 62896U 25024T   25122.52824425 -.00004929  00000+0 -16960-3 0  9998
2 62896  42.9987 282.1390 0000672 290.7597  69.3183 15.27603229 14654
STARLINK-32893          
1 62897U 25024U   25122.86677501 -.00001493  00000+0 -44775-4 0  9996
2 62897  43.0017 280.3794 0000568 282.6613  77.4175 15.27552658 14731
STARLINK-32902          
1 62898U 25024V   25122.79748202 -.00001332  00000+0 -38851-4 0  9996
2 62898  43.0007 280.7114 0001224 265.8257  94.2455 15.27612812 14724
STARLINK-32661          
1 62899U 25024W   25122.88855856  .00004666  00000+0  17887-3 0  9997
2 62899  43.0036 280.5378 0001192 249.8821 110.1902 15.27601444 14735
STARLINK-11552 [DTC]    
1 62907U 25027A   25122.53125817  .00000112  00000+0  43708-5 0  9994
2 62907  43.0014  63.3504 0001531 271.1817  88.8875 15.70832655 14243
STARLINK-11561 [DTC]    
1 62908U 25027B   25122.88621215 -.00006281  00000+0 -45457-4 0  9993
2 62908  43.0001  60.8361 0001694 302.0022  58.0680 15.70855911 14271
STARLINK-11567 [DTC]    
1 62909U 25027C   25122.54719078 -.00000678  00000+0 -17814-5 0  9993
2 62909  43.0036  63.4753 0002075 272.8104  87.2526 15.70823914 14195
STARLINK-11569 [DTC]    
1 62910U 25027D   25122.83324286  .00000362  00000+0  63170-5 0  9994
2 62910  43.0017  61.3026 0001470 259.6878 100.3824 15.70837106 14269
STARLINK-11537 [DTC]    
1 62911U 25027E   25122.52595233 -.00010896  00000+0 -81301-4 0  9993
2 62911  43.0010  63.3078 0004146 299.9236  60.1220 15.70887820 14249
STARLINK-11565 [DTC]    
1 62912U 25027F   25122.74842426  .00005115  00000+0  43388-4 0  9996
2 62912  43.0019  61.5134 0001948 272.8419  87.2226 15.70811199 14255
STARLINK-11564 [DTC]    
1 62913U 25027G   25122.85448234  .00003064  00000+0  27385-4 0  9998
2 62913  43.0012  61.4719 0001744 270.7975  89.2693 15.70820645 14262
STARLINK-11566 [DTC]    
1 62914U 25027H   25122.54187773  .00000518  00000+0  75389-5 0  9992
2 62914  43.0012  63.4319 0001566 274.8291  85.2397 15.70829457 14255
STARLINK-11555 [DTC]    
1 62915U 25027J   25122.86069991  .00000669  00000+0  87175-5 0  9992
2 62915  43.0036  61.5241 0001996 270.0457  90.0182 15.70833676 14304
STARLINK-11430 [DTC]    
1 62916U 25027K   25122.87041325 -.00005474  00000+0 -39153-4 0  9998
2 62916  43.0018  61.6008 0001774 272.9571  87.1094 15.70861197 14307
STARLINK-11560 [DTC]    
1 62917U 25027L   25122.20272428  .00000456  00000+0  70599-5 0  9999
2 62917  43.0041  65.1760 0002121 232.8293 127.2381 15.70825505 14141
STARLINK-11562 [DTC]    
1 62918U 25027M   25122.82793092  .00000455  00000+0  70463-5 0  9992
2 62918  43.0045  61.2558 0002186 259.9692 100.0929 15.70834890 14304
STARLINK-11457 [DTC]    
1 62919U 25027N   25122.30866320  .00000563  00000+0  78938-5 0  9996
2 62919  43.0002  64.2394 0001345 299.3036  60.7697 15.70807536 14160
STARLINK-32921          
1 62920U 25027P   25122.57968062  .00000802  00000+0  38670-4 0  9997
2 62920  43.0007  85.7175 0000982 255.4140 104.6603 15.27582881 13964
STARLINK-32917          
1 62921U 25027Q   25122.59381304  .00001058  00000+0  47960-4 0  9994
2 62921  43.0012  85.8239 0001145 269.0776  90.9944 15.27582045 13968
STARLINK-32916          
1 62922U 25027R   25122.58354239 -.00000379  00000+0 -42499-5 0  9991
2 62922  43.0011  85.7436 0001116 273.3549  86.7175 15.27578696 13966
STARLINK-32905          
1 62923U 25027S   25122.93231664 -.00000776  00000+0 -18677-4 0  9998
2 62923  43.0036  84.0706 0001193 273.0882  86.9834 15.27577385 14013
STARLINK-32871          
1 62924U 25027T   25122.58995534  .00001218  00000+0  53753-4 0  9997
2 62924  42.9985  85.7910 0001274 267.1194  92.9512 15.27583037 13953
STARLINK-32920          
1 62925U 25027U   25122.58610533 -.00000287  00000+0 -92331-6 0  9995
2 62925  42.9996  85.7623 0001227 269.6481  90.4230 15.27589605 13969
STARLINK-32922          
1 62926U 25027V   25122.60153000 -.00000962  00000+0 -25441-4 0  9996
2 62926  42.9984  85.8859 0000942 272.4540  87.6204 15.27583010 13952
STARLINK-32891          
1 62927U 25027W   25122.86949411  .00001529  00000+0  65049-4 0  9990
2 62927  43.0018  84.4589 0000941 268.2351  91.8393 15.27583636 14007
STARLINK-32728          
1 62948U 25029A   25122.73553743 -.00000936  00000+0 -13437-4 0  9997
2 62948  53.1595 236.4892 0001192  80.6978 279.4161 15.39610618 13750
STARLINK-32857          
1 62949U 25029B   25122.75874329  .00000127  00000+0  13162-4 0  9991
2 62949  53.1599 236.6345 0001384  99.1007 261.0155 15.39625163 13752
STARLINK-32850          
1 62950U 25029C   25122.83240351 -.00000047  00000+0  10563-4 0  9998
2 62950  53.1607 236.3777 0002261 162.9051 197.2026 15.30192286 13734
STARLINK-32875          
1 62951U 25029D   25122.81902751  .00002352  00000+0  68823-4 0  9998
2 62951  53.1613 236.3053 0001639 100.8277 259.2912 15.39599254 13736
STARLINK-32865          
1 62952U 25029E   25122.82608873  .00001715  00000+0  70109-4 0  9990
2 62952  53.1610 236.3455 0001549 101.2744 258.8430 15.30159779 13739
STARLINK-32884          
1 62953U 25029F   25122.80973526  .00003581  00000+0  99501-4 0  9999
2 62953  53.1606 236.2445 0001756  89.9058 270.2148 15.39607240 13737
STARLINK-32874          
1 62954U 25029G   25122.72657671  .00001307  00000+0  42664-4 0  9993
2 62954  53.1604 236.4332 0001242 103.0560 257.0583 15.39619636 13726
STARLINK-32880          
1 62955U 25029H   25122.62908960 -.00001214  00000+0 -28915-4 0  9995
2 62955  53.1608 237.2480 0001342  62.0435 298.0701 15.30164922 13709
STARLINK-32815          
1 62956U 25029J   25122.48979892  .00000322  00000+0  18017-4 0  9991
2 62956  53.1608 237.8001 0001007 133.2702 226.8387 15.39619252 13687
STARLINK-32879          
1 62957U 25029K   25122.45740190  .00000836  00000+0  40366-4 0  9998
2 62957  53.1650 238.3128 0001118  46.2723 313.8370 15.30195649 13667
STARLINK-32885          
1 62958U 25029L   25122.79580346 -.00004004  00000+0 -90163-4 0  9994
2 62958  53.1607 236.1558 0001519  98.8558 261.2619 15.39619680 13721
STARLINK-32896          
1 62959U 25029M   25122.79665211 -.00002877  00000+0 -85121-4 0  9994
2 62959  53.1622 236.8675 0001272  68.5869 291.5267 15.30177650 13712
STARLINK-32877          
1 62960U 25029N   25122.59436900  .00000060  00000+0  14155-4 0  9994
2 62960  53.1602 237.7352 0001365  92.5635 267.5522 15.30186270 13664
STARLINK-32889          
1 62961U 25029P   25122.72815216  .00002330  00000+0  90761-4 0  9990
2 62961  53.1624 237.1580 0001024  64.8580 295.2527 15.30206356 13705
STARLINK-32858          
1 62962U 25029Q   25122.91667824 -.01384414  00000+0 -37609-1 0  9990
2 62962  53.1585 235.7446 0001115  75.4670 155.8531 15.39937414  5708
STARLINK-32882          
1 62963U 25029R   25122.59642524 -.00001486  00000+0 -27209-4 0  9997
2 62963  53.1610 237.0426 0000952  67.4761 292.6345 15.39600862 13695
STARLINK-32887          
1 62964U 25029S   25122.68952938 -.00001948  00000+0 -38742-4 0  9998
2 62964  53.1598 236.9146 0001020  86.8792 273.2330 15.39606229 13708
